#aV2013  6  6  0  0  0.00000000     288 DD+AD WGS84 FIT  NGA
## 1743 345600.00000000   300.00000000 56449 0.0000000000000
+   31     1  2  3  4  5  6  7  8  9 10 11 12 13 14 15 16 17
+         18 19 20 21 22 23 24 25 26 27 28 29 31 32  0  0  0
+          0  0  0  0  0  0  0  0  0  0  0  0  0  0  0  0  0
+          0  0  0  0  0  0  0  0  0  0  0  0  0  0  0  0  0
+          0  0  0  0  0  0  0  0  0  0  0  0  0  0  0  0  0
++         2  2  2  2  2  2  2  2  2  2  2  2  2  2  2  2  2
++         2  2  2  2  2  2  2  2  2  2  2  2  2  2  2  0  0
++         0  0  0  0  0  0  0  0  0  0  0  0  0  0  0  0  0
++         0  0  0  0  0  0  0  0  0  0  0  0  0  0  0  0  0
++         0  0  0  0  0  0  0  0  0  0  0  0  0  0  0  0  0
%c cc cc ccc ccc cccc cccc cccc cccc ccccc ccccc ccccc ccccc
%c cc cc ccc ccc cccc cccc cccc cccc ccccc ccccc ccccc ccccc
%f  0.0000000  0.000000000  0.00000000000  0.000000000000000
%f  0.0000000  0.000000000  0.00000000000  0.000000000000000
%i    0    0    0    0      0      0      0      0         0
%i    0    0    0    0      0      0      0      0         0
/*      NGA, ST. LOUIS,MO.                                  
/*   EPHEMERIS COMPUTED FROM  1 DAYS OF DATA
/*   EPOCHA SMOOTHER  
/* CCCCCCCCCCCCCCCCCCCCCCCCCCCCCCCCCCCCCCCCCCCCCCCCCCCCCCCCC
*  2013  6  6 13 55  0.00000000                                                 
P  1 -19378.629245  -8064.218162  16313.260562     34.409087                    
V  1 -10190.869835 -18124.283888 -20955.295447      0.044135                    
P  2  13020.062157  23159.864526   3996.733928    435.747833                    
V  2  -5221.704668  -2109.086758  30382.169950      0.018476                    
P  3 -15023.862200 -11275.393990 -19374.715543    216.676476                    
V  3  22654.184300  -6541.173099 -13924.677134      0.048631                    
P  4   4119.572091  22555.789135  12886.876180    238.344863                    
V  4 -12231.017248 -12184.384093  24970.615995      0.103757                    
P  5   6178.289726  17967.867618 -18526.569876   -396.411025                    
V  5 -11645.576051  20553.464777  16211.901358     -0.008142                    
P  6  -8784.328451 -14015.956841 -20764.747395    199.631474                    
V  6  26185.027283  -4449.504977  -7672.461081     -0.168663                    
P  7 -13063.669277   7201.437879 -21940.574458    222.105304                    
V  7 -15362.470409 -23300.110190   1201.737529      0.042428                    
P  8  -5966.819700  16135.195586 -19934.659829      6.599867                    
V  8 -13001.492591 -22147.069075 -14533.652528      0.002412                    
P  9   3886.109875  22342.049988 -14292.744108    245.982720                    
V  9 -11028.888452 -13299.899180 -24834.860170      0.025194                    
P 10  -7321.539130  24623.254654  -6109.375395    -82.532795                    
V 10  -6503.323779   5134.773814  30334.190403     -0.014012                    
P 11 -23096.161331 -11155.599504   6959.387764   -389.002541                    
V 11  -4518.200412  -9497.352854 -28145.154007     -0.035244                    
P 12  15239.625718   1784.108083  21609.295106    137.862459                    
V 12 -12173.321323  24665.881959   6739.719843      0.021108                    
P 13 -24832.161675   5033.126001  -8335.872160    112.122645                    
V 13 -10287.617107  -2083.504360  29759.827094     -0.036324                    
P 14   9126.883350 -14132.647912  20715.513921    220.526296                    
V 14  25856.272973    665.313667 -11191.701693     -0.002674                    
P 15  24478.193230   4449.690080  -9686.621775   -122.187743                    
V 15 -11829.832741   4163.468790 -27811.484326     -0.015721                    
P 16  -4411.989244 -18087.642865 -18826.968764   -251.574395                    
V 16  12479.914142 -20442.331050  17067.175332      0.003541                    
P 17  -9417.555279  14452.134366  20350.522271     11.767496                    
V 17 -25427.858348    -85.476517 -12062.601691     -0.038614                    
P 18  15869.068729 -19321.947670  -8001.781586    257.338881                    
V 18  -1106.384210  11511.799822 -28888.501558      0.019511                    
P 19 -21896.327313  -9016.953093 -12545.146702   -378.898387                    
V 19  15642.567799  -1721.421952 -25838.869243     -0.029989                    
P 20 -17377.642244   3736.172224  19545.039803    102.076325                    
V 20   8248.349705 -24001.659178  11887.977186      0.021246                    
P 21  10940.789784 -11349.817802 -20759.776866   -301.664966                    
V 21  16413.058171  22536.425741  -4092.579648     -0.020820                    
P 22   9651.967122 -24544.824803   2559.820445    170.630405                    
V 22   4951.553391  -1004.218130 -30811.030733      0.013235                    
P 23 -26720.798118    500.904384   1807.789802     78.735300                    
V 23   2006.257879  -2754.156223  31276.514801     -0.035609                    
P 24  19710.885951  11427.007551  13673.410445     -7.697423                    
V 24   8137.987515  15508.935287 -24626.698708     -0.006445                    
P 25  17561.769955 -11332.629111  16276.015664    106.269436                    
V 25  -7294.671829  19531.445274  21494.704343      0.045457                    
P 26  13637.088937  13201.350301 -19356.570309     42.960585                    
V 26 -23080.481324    461.800412 -16181.500682      0.158211                    
P 27 -12557.851777 -12749.643315 -19630.717563     -0.485567                    
V 27  24737.047610  -3260.614728 -13703.026058     -0.012818                    
P 28 -12765.991842  23168.508175    -58.017434    265.018765                    
V 28  -1601.097924  -1768.633950 -32375.946584      0.033115                    
P 29  25075.366006  -5408.591269  -6737.542958    442.480126                    
V 29   8701.673729   2307.156330  30350.658572      0.035692                    
P 31  -4162.270040 -22618.046864  13203.287264    316.861416                    
V 31  10644.058274  12835.692122  25941.748254      0.012369                    
P 32 -13801.734825  -7124.884611  21660.304559   -558.586798                    
V 32  13523.091809 -23668.452588   1353.976104     -0.007514                    
EOF
